{
    "links": {
        "self": "http://www.neowsapp.com/rest/v1/neo/3728853?api_key=iIulBulltgU6a56xZRHN4H3l9WmuAYTsLGpBGhQ2"
    },
    "id": "3728853",
    "neo_reference_id": "3728853",
    "name": "(2015 SU16)",
    "designation": "2015 SU16",
    "nasa_jpl_url": "http://ssd.jpl.nasa.gov/sbdb.cgi?sstr=3728853",
    "absolute_magnitude_h": 25.0,
    "estimated_diameter": {
        "kilometers": {
            "estimated_diameter_min": 0.02658,
            "estimated_diameter_max": 0.0594346868
        },
        "meters": {
            "estimated_diameter_min": 26.58,
            "estimated_diameter_max": 59.4346868419
        },
        "miles": {
            "estimated_diameter_min": 0.0165160412,
            "estimated_diameter_max": 0.0369309908
        },
        "feet": {
            "estimated_diameter_min": 87.2047272,
            "estimated_diameter_max": 194.9956979785
        }
    },
    "is_potentially_hazardous_asteroid": false,
    "close_approach_data": [
        {
            "close_approach_date": "2015-10-01",
            "close_approach_date_full": "2015-Oct-01 11:12",
            "epoch_date_close_approach": 1443697920000,
            "relative_velocity": {
                "kilometers_per_second": "9.5848927228",
                "kilometers_per_hour": "34505.6138021193",
                "miles_per_hour": "21440.4465316557"
            },
            "miss_distance": {
                "astronomical": "0.0401393745",
                "lunar": "15.6142166805",
                "kilometers": "6004764.928332315",
                "miles": "3731187.908983347"
            },
            "orbiting_body": "Earth"
        }
    ],
    "orbital_data": {
        "orbit_id": "11",
        "orbit_determination_date": "2017-04-06 08:31:43",
        "first_observation_date": "2015-09-25",
        "last_observation_date": "2015-10-11",
        "data_arc_in_days": 16,
        "observations_used": 68,
        "orbit_uncertainty": "7",
        "minimum_orbit_intersection": ".0404167",
        "jupiter_tisserand_invariant": "4.070",
        "epoch_osculation": "2459000.5",
        "eccentricity": ".3917056769761722",
        "semi_major_axis": "1.704692660511477",
        "inclination": "14.85885913291709",
        "ascending_node_longitude": "187.6172356377357",
        "orbital_period": "812.9569792731135",
        "perihelion_distance": "1.036954867889517",
        "perihelion_argument": "189.9383001673353",
        "aphelion_distance": "2.372430453133438",
        "perihelion_time": "2458931.570159932761",
        "mean_anomaly": "30.5240536176876",
        "mean_motion": ".4428278607336462",
        "equinox": "J2000",
        "orbit_class": {
            "orbit_class_type": "AMO",
            "orbit_class_description": "Near-Earth asteroid orbits similar to that of 1221 Amor",
            "orbit_class_range": "1.017 AU < q (perihelion) < 1.3 AU"
        }
    },
    "is_sentry_object": false
}